IRIDIUM 63              
1 25286U 98021B   25273.84440064  .00001116  00000+0  37282-3 0  9995
2 25286  86.4002  37.7781 0001897  89.3746 270.7668 14.36636716439016
IRIDIUM 69              
1 25319U 98026A   25273.74077253  .00001570  00000+0  48203-3 0  9991
2 25319  86.3967  50.7797 0003923  61.2747 298.8846 14.41077347438266
IRIDIUM 71              
1 25320U 98026B   25273.80359779  .00000806  00000+0  24353-3 0  9997
2 25320  86.3977  45.4304 0004197  94.7372 265.4307 14.41243769438808
IRIDIUM 73              
1 25344U 98032C   25273.72511741  .00001455  00000+0  35648-3 0  9990
2 25344  86.4472   1.9990 0002240  74.7210 285.4243 14.51849141445872
IRIDIUM 82              
1 25467U 98051A   25273.66484610  .00070414  00000+0  17030-2 0  9999
2 25467  86.3625  57.6389 0074264 254.6698 104.6339 15.37989305440135
